NORAD_CAT_ID,OBJECT_NAME,OBJECT_TYPE,EPOCH,MEAN_MOTION,ECCENTRICITY,INCLINATION,RA_OF_ASC_NODE,ARG_OF_PERICENTER,MEAN_ANOMALY,BSTAR,MEAN_MOTION_DOT,MEAN_MOTION_DDOT,TLE_LINE0,TLE_LINE1,TLE_LINE2,SEMIMAJOR_AXIS,PERIOD,APOGEE,PERIGEE,DECAYED
49168.0,STARLINK-3101,PAYLOAD,2023-10-28 22:53:25,14.98332711,0.0002633,69.9987,289.7049,264.9693,95.1166,5.0014e-05,5.04e-06,0.0,0 STARLINK-3101,1 49168U 21082AQ  23301.95376935  .00000504  00000-0  50014-4 0  9990,2 49168  69.9987 289.7049 0002633 264.9693  95.1166 14.98332711118445,6950.185,96.107,573.879,570.22,0.0
49168.0,STARLINK-3101,PAYLOAD,2023-10-29 05:17:57,14.98333779,0.0002623,69.999,289.0317,265.5497,94.5362,6.6511e-05,7.01e-06,0.0,0 STARLINK-3101,1 49168U 21082AQ  23302.22080841  .00000701  00000-0  66511-4 0  9997,2 49168  69.9990 289.0317 0002623 265.5497  94.5362 14.98333779118488,6950.181,96.107,573.869,570.223,0.0
49168.0,STARLINK-3101,PAYLOAD,2023-10-29 08:30:13,14.98335278,0.000256,69.999,288.6951,263.479,96.6077,8.5278e-05,9.25e-06,0.0,0 STARLINK-3101,1 49168U 21082AQ  23302.35432675  .00000925  00000-0  85278-4 0  9996,2 49168  69.9990 288.6951 0002560 263.4790  96.6077 14.98335278118505,6950.177,96.107,573.821,570.262,0.0
49168.0,STARLINK-3101,PAYLOAD,2023-10-29 22:55:26,14.98328993,0.0002476,70.0001,287.1811,257.5013,102.587,7.234e-05,7.7e-06,0.0,0 STARLINK-3101,1 49168U 21082AQ  23302.95517093  .00000770  00000-0  72340-4 0  9994,2 49168  70.0001 287.1811 0002476 257.5013 102.5870 14.98328993118591,6950.196,96.107,573.782,570.34,0.0
49168.0,STARLINK-3101,PAYLOAD,2023-10-30 03:43:51,14.98330002,0.0002431,69.9998,286.676,256.9928,103.096,-2.1928e-05,-3.55e-06,0.0,0 STARLINK-3101,1 49168U 21082AQ  23303.15545257 -.00000355  00000-0 -21928-4 0  9997,2 49168  69.9998 286.6760 0002431 256.9928 103.0960 14.98330002118623,6950.193,96.107,573.747,570.368,0.0
49168.0,STARLINK-3101,PAYLOAD,2023-10-30 08:32:15,14.98325285,0.0003143,69.9987,286.1702,270.9879,89.092,9.5285e-05,1.044e-05,0.0,0 STARLINK-3101,1 49168U 21082AQ  23303.35573383  .00001044  00000-0  95285-4 0  9991,2 49168  69.9987 286.1702 0003143 270.9879  89.0920 14.98325285118653,6950.207,96.107,574.257,569.888,0.0
49168.0,STARLINK-3101,PAYLOAD,2023-10-31 05:22:00,14.98331303,0.0002926,69.999,283.9821,268.352,91.7304,5.288e-05,5.38e-06,0.0,0 STARLINK-3101,1 49168U 21082AQ  23304.22361190  .00000538  00000-0  52880-4 0  9990,2 49168  69.9990 283.9821 0002926 268.3520  91.7304 14.98331303118784,6950.189,96.107,574.087,570.02,0.0
49168.0,STARLINK-3101,PAYLOAD,2023-10-31 08:34:16,14.98332685,0.0002792,69.999,283.645,267.1441,92.9399,6.1233e-05,6.38e-06,0.0,0 STARLINK-3101,1 49168U 21082AQ  23304.35713100  .00000638  00000-0  61233-4 0  9999,2 49168  69.9990 283.6450 0002792 267.1441  92.9399 14.98332685118803,6950.185,96.107,573.99,570.109,0.0
49168.0,STARLINK-3101,PAYLOAD,2023-10-31 16:34:56,14.98331457,0.0002648,70.0002,282.803,268.4383,91.6473,7.6673e-05,8.22e-06,0.0,0 STARLINK-3101,1 49168U 21082AQ  23304.69093135  .00000822  00000-0  76673-4 0  9994,2 49168  70.0002 282.8030 0002648 268.4383  91.6473 14.98331457118854,6950.188,96.107,573.894,570.213,0.0
49168.0,STARLINK-3101,PAYLOAD,2023-11-01 05:24:00,14.98336197,0.0002797,70.0,281.4562,268.5192,91.5646,0.00014647,1.655e-05,0.0,0 STARLINK-3101,1 49168U 21082AQ  23305.22500660  .00001655  00000-0  14647-3 0  9997,2 49168  70.0000 281.4562 0002797 268.5192  91.5646 14.98336197118937,6950.174,96.107,573.983,570.095,0.0
49168.0,STARLINK-3101,PAYLOAD,2023-11-01 08:36:17,14.98319552,0.0002828,69.9999,281.1197,270.0276,90.0559,-4.4845e-05,-6.28e-06,0.0,0 STARLINK-3101,1 49168U 21082AQ  23305.35854073 -.00000628  00000-0 -44845-4 0  9996,2 49168  69.9999 281.1197 0002828 270.0276  90.0559 14.98319552118953,6950.225,96.108,574.056,570.125,0.0
49168.0,STARLINK-3101,PAYLOAD,2023-11-01 23:01:29,14.98333117,0.0002836,69.9991,279.6049,267.2697,92.8138,9.3853e-05,1.027e-05,0.0,0 STARLINK-3101,1 49168U 21082AQ  23305.95936819  .00001027  00000-0  93853-4 0  9996,2 49168  69.9991 279.6049 0002836 267.2697  92.8138 14.98333117119044,6950.183,96.107,574.019,570.077,0.0
49168.0,STARLINK-3101,PAYLOAD,2023-11-02 03:49:52,14.98340816,0.0002711,69.999,279.0999,261.9831,98.1021,0.00017063,1.944e-05,0.0,0 STARLINK-3101,1 49168U 21082AQ  23306.15964119  .00001944  00000-0  17063-3 0  9999,2 49168  69.9990 279.0999 0002711 261.9831  98.1021 14.98340816119071,6950.159,96.106,573.909,570.14,0.0
49168.0,STARLINK-3101,PAYLOAD,2023-11-02 08:38:17,14.98329694,0.0002634,69.9994,278.5945,266.1766,93.9092,0.00034458,4.021e-05,0.0,0 STARLINK-3101,1 49168U 21082AQ  23306.35992426  .00004021  00000-0  34458-3 0  9999,2 49168  69.9994 278.5945 0002634 266.1766  93.9092 14.98329694119104,6950.194,96.107,573.89,570.228,0.0
49168.0,STARLINK-3101,PAYLOAD,2023-11-02 15:02:48,14.98375133,0.0002492,70.0012,277.9205,278.0642,82.0234,-0.00074607,-8.994e-05,0.0,0 STARLINK-3101,1 49168U 21082AQ  23306.62695525 -.00008994  00000-0 -74607-3 0  9994,2 49168  70.0012 277.9205 0002492 278.0642  82.0234 14.98375133119147,6950.053,96.104,573.65,570.186,0.0
49168.0,STARLINK-3101,PAYLOAD,2023-11-03 03:51:54,14.9832714,0.0002716,69.9992,276.5748,269.1703,90.9144,-3.9285e-05,-5.62e-06,0.0,0 STARLINK-3101,1 49168U 21082AQ  23307.16105324 -.00000562  00000-0 -39285-4 0  9994,2 49168  69.9992 276.5748 0002716 269.1703  90.9144 14.98327140119228,6950.202,96.107,573.954,570.179,0.0
49168.0,STARLINK-3101,PAYLOAD,2023-11-03 08:40:18,14.98329723,0.0002471,69.9998,276.0701,259.4441,100.644,2.0904e-06,-6.8e-07,0.0,0 STARLINK-3101,1 49168U 21082AQ  23307.36133050 -.00000068  00000-0  20904-5 0  9992,2 49168  69.9998 276.0701 0002471 259.4441 100.6440 14.98329723119257,6950.194,96.107,573.776,570.341,0.0
49168.0,STARLINK-3101,PAYLOAD,2023-11-04 03:53:55,14.98334874,0.0002561,69.9995,274.0495,267.3541,92.7325,3.4981e-05,3.25e-06,0.0,0 STARLINK-3101,1 49168U 21082AQ  23308.16244638  .00000325  00000-0  34981-4 0  9990,2 49168  69.9995 274.0495 0002561 267.3541  92.7325 14.98334874119370,6950.178,96.107,573.823,570.263,0.0
49168.0,STARLINK-3101,PAYLOAD,2023-11-04 07:06:11,14.9833258,0.0002495,69.9994,273.7127,263.1599,96.9276,1.4421e-05,7.9e-07,0.0,0 STARLINK-3101,1 49168U 21082AQ  23308.29596804  .00000079  00000-0  14421-4 0  9992,2 49168  69.9994 273.7127 0002495 263.1599  96.9276 14.98332580119395,6950.185,96.107,573.784,570.316,0.0
49168.0,STARLINK-3101,PAYLOAD,2023-11-04 15:06:52,14.98331443,0.0002257,70.0003,272.8706,272.2736,87.8164,-4.4956e-05,-6.29e-06,0.0,0 STARLINK-3101,1 49168U 21082AQ  23308.62977113 -.00000629  00000-0 -44956-4 0  9994,2 49168  70.0003 272.8706 0002257 272.2736  87.8164 14.98331443119440,6950.188,96.107,573.622,570.485,0.0
49168.0,STARLINK-3101,PAYLOAD,2023-11-05 03:55:56,14.98333119,0.0002766,69.9992,271.5243,261.7491,98.3354,0.00013674,1.539e-05,0.0,0 STARLINK-3101,1 49168U 21082AQ  23309.16384502  .00001539  00000-0  13674-3 0  9999,2 49168  69.9992 271.5243 0002766 261.7491  98.3354 14.98333119119521,6950.183,96.107,573.971,570.126,0.0
49168.0,STARLINK-3101,PAYLOAD,2023-11-05 07:08:11,14.98337991,0.0002651,69.9994,271.1873,263.4512,96.6346,0.00021778,2.507e-05,0.0,0 STARLINK-3101,1 49168U 21082AQ  23309.29736056  .00002507  00000-0  21778-3 0  9998,2 49168  69.9994 271.1873 0002651 263.4512  96.6346 14.98337991119540,6950.168,96.106,573.876,570.191,0.0
49168.0,STARLINK-3101,PAYLOAD,2023-11-05 15:08:52,14.98333684,0.000241,70.0002,270.3458,264.4119,95.6765,0.00012758,1.43e-05,0.0,0 STARLINK-3101,1 49168U 21082AQ  23309.63116520  .00001430  00000-0  12758-3 0  9996,2 49168  70.0002 270.3458 0002410 264.4119  95.6765 14.98333684119594,6950.181,96.107,573.721,570.372,0.0
49168.0,STARLINK-3101,PAYLOAD,2023-11-06 07:10:11,14.98352822,0.0002593,70.0,268.6635,259.4603,100.6264,0.00035507,4.149e-05,0.0,0 STARLINK-3101,1 49168U 21082AQ  23310.29874389  .00004149  00000-0  35507-3 0  9991,2 49168  70.0000 268.6635 0002593 259.4603 100.6264 14.98352822119690,6950.122,96.106,573.789,570.185,0.0
49168.0,STARLINK-3101,PAYLOAD,2023-11-06 21:35:27,14.98313756,0.0002642,69.9997,267.1479,268.9967,91.089,-0.00010399,-1.333e-05,0.0,0 STARLINK-3101,1 49168U 21082AQ  23310.89962132 -.00001333  00000-0 -10399-3 0  9997,2 49168  69.9997 267.1479 0002642 268.9967  91.0890 14.98313756119786,6950.243,96.108,573.944,570.272,0.0
49168.0,STARLINK-3101,PAYLOAD,2023-11-07 04:00:01,14.98293018,0.0002284,70.0004,266.4753,262.8014,97.2886,-0.00032302,-3.941e-05,0.0,0 STARLINK-3101,1 49168U 21082AQ  23311.16668294 -.00003941  00000-0 -32302-3 0  9995,2 49168  70.0004 266.4753 0002284 262.8014  97.2886 14.98293018119829,6950.307,96.109,573.76,570.585,0.0
49168.0,STARLINK-3101,PAYLOAD,2023-11-07 07:12:17,14.98298114,0.000254,70.0005,266.139,278.6944,81.3928,-0.00024076,-2.962e-05,0.0,0 STARLINK-3101,1 49168U 21082AQ  23311.30020115 -.00002962  00000-0 -24076-3 0  9996,2 49168  70.0005 266.1390 0002540 278.6944  81.3928 14.98298114119841,6950.291,96.109,573.922,570.391,0.0
49168.0,STARLINK-3101,PAYLOAD,2023-11-08 04:01:58,14.98353597,0.0002169,70.0009,263.9526,256.3323,103.7594,0.0002366,2.733e-05,0.0,0 STARLINK-3101,1 49168U 21082AQ  23312.16803704  .00002733  00000-0  23660-3 0  9996,2 49168  70.0009 263.9526 0002169 256.3323 103.7594 14.98353597119971,6950.12,96.105,573.492,570.477,0.0
49168.0,STARLINK-3101,PAYLOAD,2023-11-08 05:38:06,14.98352583,0.0002388,70.001,263.7853,253.0013,107.0885,0.00014904,1.687e-05,0.0,0 STARLINK-3101,1 49168U 21082AQ  23312.23479872  .00001687  00000-0  14904-3 0  9997,2 49168  70.0010 263.7853 0002388 253.0013 107.0885 14.98352583119982,6950.123,96.106,573.648,570.328,0.0
49168.0,STARLINK-3101,PAYLOAD,2023-11-08 21:39:27,14.98325689,0.0002253,70.0006,262.102,269.9116,90.1785,0.00057916,6.823e-05,0.0,0 STARLINK-3101,1 49168U 21082AQ  23312.90240443  .00006823  00000-0  57916-3 0  9998,2 49168  70.0006 262.1020 0002253 269.9116  90.1785 14.98325689120088,6950.206,96.107,573.637,570.505,0.0
